[{"OBJECT_NAME":"STARLINK-11180 [DTC]","OBJECT_ID":"2024-124C","EPOCH":"2026-03-09T13:01:28.105824","MEAN_MOTION":15.69688765,"ECCENTRICITY":9.936e-5,"INCLINATION":53.1596,"RA_OF_ASC_NODE":161.7874,"ARG_OF_PERICENTER":90.826,"MEAN_ANOMALY":269.2872,"EPHEMERIS_TYPE":0,"CLASSIFICATION_TYPE":"U","NORAD_CAT_ID":60185,"ELEMENT_SET_NO":999,"REV_AT_EPOCH":9651,"BSTAR":-4.051785e-6,"MEAN_MOTION_DOT":-1.079e-5,"MEAN_MOTION_DDOT":0},{"OBJECT_NAME":"FREGAT DEB","OBJECT_ID":"2011-037AE","EPOCH":"2026-03-09T11:56:15.633888","MEAN_MOTION":13.06115161,"ECCENTRICITY":0.1161067,"INCLINATION":51.4064,"RA_OF_ASC_NODE":123.1143,"ARG_OF_PERICENTER":278.9184,"MEAN_ANOMALY":68.2271,"EPHEMERIS_TYPE":0,"CLASSIFICATION_TYPE":"U","NORAD_CAT_ID":45638,"ELEMENT_SET_NO":999,"REV_AT_EPOCH":25229,"BSTAR":0.0046705437,"MEAN_MOTION_DOT":0.00073585,"MEAN_MOTION_DDOT":0}]
